start=new Date('2022-01-01T00:00:00.000Z').valueOf();
sats=[{"CENTER_NAME":"EARTH","RA_OF_ASC_NODE":"182.3784","PERIAPSIS":"443.541","SITE":"AFETR","INCLINATION":"53.2157","OBJECT_TYPE":"PAYLOAD","REF_FRAME":"TEME","ARG_OF_PERICENTER":"46.1256","EPHEMERIS_TYPE":"0","FILE":"3255242","MEAN_MOTION":"15.40483861","CLASSIFICATION_TYPE":"U","RCS_SIZE":"LARGE","MEAN_MOTION_DDOT":"0.0000000000000","ECCENTRICITY":"0.00016720","NORAD_CAT_ID":"49762","TLE_LINE2":"2 49762  53.2157 182.3784 0001672  46.1256  46.2164 15.40483861  3653","MEAN_ELEMENT_THEORY":"SGP4","DECAY_DATE":null,"MEAN_MOTION_DOT":"-0.00014118","LAUNCH_DATE":"2021-12-02","OBJECT_ID":"2021-115AQ","COUNTRY_CODE":"US","ELEMENT_SET_NO":"999","OBJECT_NAME":"STARLINK-3195","APOAPSIS":"445.823","TLE_LINE1":"1 49762U 21115AQ  21365.58334491 -.00014118  00000-0 -33386-3 0  9995","BSTAR":"-0.00033386000000","GP_ID":"192821321","SEMIMAJOR_AXIS":"6822.817","PERIOD":"93.477","REV_AT_EPOCH":"365","MEAN_ANOMALY":"46.2164","EPOCH":"2021-12-31T14:00:01.000224","TIME_SYSTEM":"UTC"},{"TIME_SYSTEM":"UTC","EPOCH":"2021-12-31T14:00:01.000224","MEAN_ANOMALY":"43.6805","REV_AT_EPOCH":"365","PERIOD":"93.477","SEMIMAJOR_AXIS":"6822.832","GP_ID":"192821572","TLE_LINE1":"1 49763U 21115AR  21365.58334491 -.00012414  00000-0 -29237-3 0  9993","BSTAR":"-0.00029237000000","OBJECT_NAME":"STARLINK-3198","APOAPSIS":"445.863","ELEMENT_SET_NO":"999","COUNTRY_CODE":"US","OBJECT_ID":"2021-115AR","DECAY_DATE":null,"MEAN_MOTION_DOT":"-0.00012414","LAUNCH_DATE":"2021-12-02","MEAN_ELEMENT_THEORY":"SGP4","TLE_LINE2":"2 49763  53.2157 182.3729 0001710  51.8183  43.6805 15.40478995  3653","NORAD_CAT_ID":"49763","ECCENTRICITY":"0.00017100","MEAN_MOTION_DDOT":"0.0000000000000","RCS_SIZE":"LARGE","CLASSIFICATION_TYPE":"U","MEAN_MOTION":"15.40478995","FILE":"3255242","EPHEMERIS_TYPE":"0","ARG_OF_PERICENTER":"51.8183","REF_FRAME":"TEME","OBJECT_TYPE":"PAYLOAD","INCLINATION":"53.2157","SITE":"AFETR","RA_OF_ASC_NODE":"182.3729","PERIAPSIS":"443.530","CENTER_NAME":"EARTH"},{"NORAD_CAT_ID":"49764","MEAN_MOTION_DOT":"-0.00013919","DECAY_DATE":null,"LAUNCH_DATE":"2021-12-02","TLE_LINE2":"2 49764  53.2152 182.3820 0001735  49.2796  40.9734 15.40471086  3654","MEAN_ELEMENT_THEORY":"SGP4","ELEMENT_SET_NO":"999","COUNTRY_CODE":"US","OBJECT_ID":"2021-115AS","OBJECT_NAME":"STARLINK-3206","APOAPSIS":"445.904","PERIOD":"93.478","SEMIMAJOR_AXIS":"6822.855","GP_ID":"192821809","TLE_LINE1":"1 49764U 21115AS  21365.58334491 -.00013919  00000-0 -32914-3 0  9991","BSTAR":"-0.00032914000000","MEAN_ANOMALY":"40.9734","REV_AT_EPOCH":"365","EPOCH":"2021-12-31T14:00:01.000224","TIME_SYSTEM":"UTC","CENTER_NAME":"EARTH","PERIAPSIS":"443.536","RA_OF_ASC_NODE":"182.3820","INCLINATION":"53.2152","SITE":"AFETR","REF_FRAME":"TEME","ARG_OF_PERICENTER":"49.2796","OBJECT_TYPE":"PAYLOAD","EPHEMERIS_TYPE":"0","MEAN_MOTION":"15.40471086","FILE":"3255242","ECCENTRICITY":"0.00017350","MEAN_MOTION_DDOT":"0.0000000000000","RCS_SIZE":"LARGE","CLASSIFICATION_TYPE":"U"},{"EPHEMERIS_TYPE":"0","FILE":"3255242","MEAN_MOTION":"15.40474197","CLASSIFICATION_TYPE":"U","RCS_SIZE":"LARGE","ECCENTRICITY":"0.00016950","MEAN_MOTION_DDOT":"0.0000000000000","CENTER_NAME":"EARTH","RA_OF_ASC_NODE":"182.3769","PERIAPSIS":"443.554","SITE":"AFETR","INCLINATION":"53.2157","OBJECT_TYPE":"PAYLOAD","REF_FRAME":"TEME","ARG_OF_PERICENTER":"50.3097","TLE_LINE1":"1 49765U 21115AT  21365.58334491 -.00028062  00000-0 -67475-3 0  9997","GP_ID":"192820571","BSTAR":"-0.00067475000000","SEMIMAJOR_AXIS":"6822.846","PERIOD":"93.478","REV_AT_EPOCH":"365","MEAN_ANOMALY":"43.0933","EPOCH":"2021-12-31T14:00:01.000224","TIME_SYSTEM":"UTC","NORAD_CAT_ID":"49765","MEAN_ELEMENT_THEORY":"SGP4","TLE_LINE2":"2 49765  53.2157 182.3769 0001695  50.3097  43.0933 15.40474197  3655","DECAY_DATE":null,"MEAN_MOTION_DOT":"-0.00028062","LAUNCH_DATE":"2021-12-02","OBJECT_ID":"2021-115AT","COUNTRY_CODE":"US","ELEMENT_SET_NO":"999","APOAPSIS":"445.867","OBJECT_NAME":"STARLINK-3227"},{"ECCENTRICITY":"0.00018070","MEAN_MOTION_DDOT":"0.0000000000000","RCS_SIZE":"LARGE","CLASSIFICATION_TYPE":"U","MEAN_MOTION":"15.40475419","FILE":"3255242","EPHEMERIS_TYPE":"0","ARG_OF_PERICENTER":"43.9781","REF_FRAME":"TEME","OBJECT_TYPE":"PAYLOAD","INCLINATION":"53.2152","SITE":"AFETR","PERIAPSIS":"443.474","RA_OF_ASC_NODE":"182.3838","CENTER_NAME":"EARTH","TIME_SYSTEM":"UTC","EPOCH":"2021-12-31T14:00:01.000224","MEAN_ANOMALY":"45.2213","REV_AT_EPOCH":"365","PERIOD":"93.478","SEMIMAJOR_AXIS":"6822.842","GP_ID":"192820821","TLE_LINE1":"1 49766U 21115AU  21365.58334491 -.00013477  00000-0 -31832-3 0  9990","BSTAR":"-0.00031832000000","APOAPSIS":"445.940","OBJECT_NAME":"STARLINK-3190","ELEMENT_SET_NO":"999","COUNTRY_CODE":"US","OBJECT_ID":"2021-115AU","DECAY_DATE":null,"LAUNCH_DATE":"2021-12-02","MEAN_MOTION_DOT":"-0.00013477","MEAN_ELEMENT_THEORY":"SGP4","TLE_LINE2":"2 49766  53.2152 182.3838 0001807  43.9781  45.2213 15.40475419  3654","NORAD_CAT_ID":"49766"},{"INCLINATION":"53.2155","SITE":"AFETR","REF_FRAME":"TEME","ARG_OF_PERICENTER":"50.0101","OBJECT_TYPE":"PAYLOAD","CENTER_NAME":"EARTH","RA_OF_ASC_NODE":"182.3809","PERIAPSIS":"443.477","MEAN_MOTION":"15.40479842","FILE":"3255242","RCS_SIZE":"LARGE","MEAN_MOTION_DDOT":"0.0000000000000","ECCENTRICITY":"0.00017840","CLASSIFICATION_TYPE":"U","EPHEMERIS_TYPE":"0","ELEMENT_SET_NO":"999","OBJECT_ID":"2021-115AV","COUNTRY_CODE":"US","OBJECT_NAME":"STARLINK-3192","APOAPSIS":"445.911","NORAD_CAT_ID":"49767","MEAN_MOTION_DOT":"-0.00013697","DECAY_DATE":null,"LAUNCH_DATE":"2021-12-02","MEAN_ELEMENT_THEORY":"SGP4","TLE_LINE2":"2 49767  53.2155 182.3809 0001784  50.0101  41.2474 15.40479842  3654","EPOCH":"2021-12-31T14:00:01.000224","TIME_SYSTEM":"UTC","PERIOD":"93.477","TLE_LINE1":"1 49767U 21115AV  21365.58334491 -.00013697  00000-0 -32364-3 0  9996","GP_ID":"192822072","BSTAR":"-0.00032364000000","SEMIMAJOR_AXIS":"6822.829","REV_AT_EPOCH":"365","MEAN_ANOMALY":"41.2474"},{"EPHEMERIS_TYPE":"0","FILE":"3255242","MEAN_MOTION":"15.40472153","CLASSIFICATION_TYPE":"U","RCS_SIZE":"LARGE","ECCENTRICITY":"0.00022740","MEAN_MOTION_DDOT":"0.0000000000000","CENTER_NAME":"EARTH","PERIAPSIS":"443.165","RA_OF_ASC_NODE":"182.3874","SITE":"AFETR","INCLINATION":"53.2150","OBJECT_TYPE":"PAYLOAD","ARG_OF_PERICENTER":"40.6620","REF_FRAME":"TEME","GP_ID":"192822310","TLE_LINE1":"1 49768U 21115AW  21365.58334491 -.00013733  00000-0 -32457-3 0  9991","BSTAR":"-0.00032457000000","SEMIMAJOR_AXIS":"6822.852","PERIOD":"93.478","REV_AT_EPOCH":"365","MEAN_ANOMALY":"46.4413","EPOCH":"2021-12-31T14:00:01.000224","TIME_SYSTEM":"UTC","NORAD_CAT_ID":"49768","MEAN_ELEMENT_THEORY":"SGP4","TLE_LINE2":"2 49768  53.2150 182.3874 0002274  40.6620  46.4413 15.40472153  3656","LAUNCH_DATE":"2021-12-02","DECAY_DATE":null,"MEAN_MOTION_DOT":"-0.00013733","OBJECT_ID":"2021-115AW","COUNTRY_CODE":"US","ELEMENT_SET_NO":"999","OBJECT_NAME":"STARLINK-3196","APOAPSIS":"446.268"},{"RA_OF_ASC_NODE":"182.3867","PERIAPSIS":"443.312","CENTER_NAME":"EARTH","ARG_OF_PERICENTER":"33.2319","REF_FRAME":"TEME","OBJECT_TYPE":"PAYLOAD","INCLINATION":"53.2154","SITE":"AFETR","EPHEMERIS_TYPE":"0","RCS_SIZE":"LARGE","ECCENTRICITY":"0.00020670","MEAN_MOTION_DDOT":"0.0000000000000","CLASSIFICATION_TYPE":"U","MEAN_MOTION":"15.40470370","FILE":"3255242","LAUNCH_DATE":"2021-12-02","DECAY_DATE":null,"MEAN_MOTION_DOT":"-0.00013693","MEAN_ELEMENT_THEORY":"SGP4","TLE_LINE2":"2 49769  53.2154 182.3867 0002067  33.2319  54.9220 15.40470370  3655","NORAD_CAT_ID":"49769","APOAPSIS":"446.132","OBJECT_NAME":"STARLINK-3208","ELEMENT_SET_NO":"999","OBJECT_ID":"2021-115AX","COUNTRY_CODE":"US","REV_AT_EPOCH":"365","MEAN_ANOMALY":"54.9220","PERIOD":"93.478","GP_ID":"192821072","TLE_LINE1":"1 49769U 21115AX  21365.58334491 -.00013693  00000-0 -32363-3 0  9993","BSTAR":"-0.00032363000000","SEMIMAJOR_AXIS":"6822.857","TIME_SYSTEM":"UTC","EPOCH":"2021-12-31T14:00:01.000224"},{"OBJECT_TYPE":"PAYLOAD","REF_FRAME":"TEME","ARG_OF_PERICENTER":"35.2832","SITE":"AFETR","INCLINATION":"53.2149","PERIAPSIS":"443.306","RA_OF_ASC_NODE":"182.3894","CENTER_NAME":"EARTH","CLASSIFICATION_TYPE":"U","ECCENTRICITY":"0.00020880","MEAN_MOTION_DDOT":"0.0000000000000","RCS_SIZE":"LARGE","FILE":"3255242","MEAN_MOTION":"15.40467563","EPHEMERIS_TYPE":"0","OBJECT_NAME":"STARLINK-3191","APOAPSIS":"446.155","COUNTRY_CODE":"US","OBJECT_ID":"2021-115AY","ELEMENT_SET_NO":"999","MEAN_ELEMENT_THEORY":"SGP4","TLE_LINE2":"2 49770  53.2149 182.3894 0002088  35.2832  50.7660 15.40467563  3658","MEAN_MOTION_DOT":"-0.00014121","DECAY_DATE":null,"LAUNCH_DATE":"2021-12-02","NORAD_CAT_ID":"49770","TIME_SYSTEM":"UTC","EPOCH":"2021-12-31T14:00:01.000224","MEAN_ANOMALY":"50.7660","REV_AT_EPOCH":"365","SEMIMAJOR_AXIS":"6822.865","BSTAR":"-0.00033410000000","TLE_LINE1":"1 49770U 21115AY  21365.58334491 -.00014121  00000-0 -33410-3 0  9996","GP_ID":"192821322","PERIOD":"93.478"},{"EPHEMERIS_TYPE":"0","RCS_SIZE":"LARGE","ECCENTRICITY":"0.00017430","MEAN_MOTION_DDOT":"0.0000000000000","CLASSIFICATION_TYPE":"U","MEAN_MOTION":"15.40469185","FILE":"3255242","RA_OF_ASC_NODE":"182.3928","PERIAPSIS":"443.536","CENTER_NAME":"EARTH","REF_FRAME":"TEME","ARG_OF_PERICENTER":"46.0560","OBJECT_TYPE":"PAYLOAD","INCLINATION":"53.2154","SITE":"AFETR","REV_AT_EPOCH":"365","MEAN_ANOMALY":"38.9655","PERIOD":"93.478","BSTAR":"-0.00049722000000","TLE_LINE1":"1 49771U 21115AZ  21365.58334491 -.00020801  00000-0 -49722-3 0  9992","GP_ID":"192821573","SEMIMAJOR_AXIS":"6822.861","TIME_SYSTEM":"UTC","EPOCH":"2021-12-31T14:00:01.000224","DECAY_DATE":null,"LAUNCH_DATE":"2021-12-02","MEAN_MOTION_DOT":"-0.00020801","TLE_LINE2":"2 49771  53.2154 182.3928 0001743  46.0560  38.9655 15.40469185  3652","MEAN_ELEMENT_THEORY":"SGP4","NORAD_CAT_ID":"49771","APOAPSIS":"445.915","OBJECT_NAME":"STARLINK-3201","ELEMENT_SET_NO":"999","OBJECT_ID":"2021-115AZ","COUNTRY_CODE":"US"}];
